NORAD_CAT_ID,OBJECT_NAME,OBJECT_TYPE,EPOCH,MEAN_MOTION,ECCENTRICITY,INCLINATION,RA_OF_ASC_NODE,ARG_OF_PERICENTER,MEAN_ANOMALY,BSTAR,MEAN_MOTION_DOT,MEAN_MOTION_DDOT,TLE_LINE0,TLE_LINE1,TLE_LINE2,SEMIMAJOR_AXIS,PERIOD,APOGEE,PERIGEE,DECAYED
52134.0,STARLINK-3721,PAYLOAD,2023-10-07 18:20:03,15.08851733,0.0001514,53.2173,77.2194,85.079,275.0375,0.00043282,6.609e-05,0.0,0 STARLINK-3721,1 52134U 22029AY  23280.76392976  .00006609  00000-0  43282-3 0  9997,2 52134  53.2173  77.2194 0001514  85.0790 275.0375 15.08851733 87496,6917.845,95.437,540.757,538.662,0.0
52134.0,STARLINK-3721,PAYLOAD,2023-10-08 10:13:55,15.08845072,0.000145,53.2177,74.2455,84.8863,275.2294,0.00024286,3.58e-05,0.0,0 STARLINK-3721,1 52134U 22029AY  23281.42633129  .00003580  00000-0  24286-3 0  9997,2 52134  53.2177  74.2455 0001450  84.8863 275.2294 15.08845072 87596,6917.865,95.437,540.733,538.727,0.0
52134.0,STARLINK-3721,PAYLOAD,2023-10-08 16:35:28,15.08834477,0.0001626,53.2174,73.0553,97.788,262.3297,7.857e-05,9.62e-06,0.0,0 STARLINK-3721,1 52134U 22029AY  23281.69129890  .00000962  00000-0  78570-4 0  9998,2 52134  53.2174  73.0553 0001626  97.7880 262.3297 15.08834477 87638,6917.897,95.438,540.887,538.637,0.0
52134.0,STARLINK-3721,PAYLOAD,2023-10-08 19:46:14,15.08833726,0.0001406,53.2171,72.4611,93.8828,266.2325,8.875e-05,1.125e-05,0.0,0 STARLINK-3721,1 52134U 22029AY  23281.82377987  .00001125  00000-0  88750-4 0  9998,2 52134  53.2171  72.4611 0001406  93.8828 266.2325 15.08833726 87651,6917.9,95.438,540.737,538.792,0.0
52134.0,STARLINK-3721,PAYLOAD,2023-10-09 13:15:28,15.08851668,0.0001443,53.217,69.1895,93.4941,266.6216,0.00015706,2.213e-05,0.0,0 STARLINK-3721,1 52134U 22029AY  23282.55241113  .00002213  00000-0  15706-3 0  9999,2 52134  53.2170  69.1895 0001443  93.4941 266.6216 15.08851668 87760,6917.845,95.437,540.708,538.711,0.0
52134.0,STARLINK-3721,PAYLOAD,2023-10-09 16:26:14,15.08855889,0.0001446,53.2169,68.5944,95.5005,264.6152,0.0003702,5.611e-05,0.0,0 STARLINK-3721,1 52134U 22029AY  23282.68489028  .00005611  00000-0  37020-3 0  9990,2 52134  53.2169  68.5944 0001446  95.5005 264.6152 15.08855889 87781,6917.832,95.437,540.697,538.697,0.0
52134.0,STARLINK-3721,PAYLOAD,2023-10-10 09:55:29,15.08850912,0.0001399,53.2174,65.3253,94.4548,265.6604,0.00029773,4.455e-05,0.0,0 STARLINK-3721,1 52134U 22029AY  23283.41353025  .00004455  00000-0  29773-3 0  9990,2 52134  53.2174  65.3253 0001399  94.4548 265.6604 15.08850912 87899,6917.847,95.437,540.68,538.744,0.0
52134.0,STARLINK-3721,PAYLOAD,2023-10-10 13:06:15,15.08849995,0.0001422,53.2178,64.7309,93.0824,267.0331,0.00027534,4.098e-05,0.0,0 STARLINK-3721,1 52134U 22029AY  23283.54600973  .00004098  00000-0  27534-3 0  9997,2 52134  53.2178  64.7309 0001422  93.0824 267.0331 15.08849995 87912,6917.85,95.437,540.699,538.731,0.0
52134.0,STARLINK-3721,PAYLOAD,2023-10-10 16:17:01,15.08853467,0.0001229,53.2171,64.1343,98.5163,261.5968,0.00036167,5.475e-05,0.0,0 STARLINK-3721,1 52134U 22029AY  23283.67848699  .00005475  00000-0  36167-3 0  9992,2 52134  53.2171  64.1343 0001229  98.5163 261.5968 15.08853467 87934,6917.839,95.437,540.554,538.854,0.0
52134.0,STARLINK-3721,PAYLOAD,2023-10-11 09:46:15,15.08841322,0.0001455,53.2183,60.8648,96.0641,264.0517,-8.2711e-05,-1.604e-05,0.0,0 STARLINK-3721,1 52134U 22029AY  23284.40712962 -.00001604  00000-0 -82711-4 0  9996,2 52134  53.2183  60.8648 0001455  96.0641 264.0517 15.08841322 88041,6917.876,95.437,540.748,538.735,0.0
52134.0,STARLINK-3721,PAYLOAD,2023-10-11 12:57:02,15.08840051,0.0001406,53.2182,60.2701,91.5916,268.5237,-8.2035e-05,-1.593e-05,0.0,0 STARLINK-3721,1 52134U 22029AY  23284.53961167 -.00001593  00000-0 -82035-4 0  9999,2 52134  53.2182  60.2701 0001406  91.5916 268.5237 15.08840051 88063,6917.88,95.438,540.718,538.773,0.0
52134.0,STARLINK-3721,PAYLOAD,2023-10-12 14:23:12,15.08844523,0.0001479,53.2186,55.5138,91.3959,268.7203,0.00010552,1.392e-05,0.0,0 STARLINK-3721,1 52134U 22029AY  23285.59945007  .00001392  00000-0  10552-3 0  9990,2 52134  53.2186  55.5138 0001479  91.3959 268.7203 15.08844523 88224,6917.867,95.437,540.755,538.708,0.0
52134.0,STARLINK-3721,PAYLOAD,2023-10-12 17:33:58,15.08849451,0.000147,53.2191,54.9193,90.9553,269.1607,0.00018126,2.599e-05,0.0,0 STARLINK-3721,1 52134U 22029AY  23285.73192729  .00002599  00000-0  18126-3 0  9996,2 52134  53.2191  54.9193 0001470  90.9553 269.1607 15.08849451 88240,6917.852,95.437,540.733,538.7,0.0
52134.0,STARLINK-3721,PAYLOAD,2023-10-13 01:30:54,15.0884023,0.0001395,53.2185,53.4293,88.147,271.9682,4.5155e-06,-2.16e-06,0.0,0 STARLINK-3721,1 52134U 22029AY  23286.06313058 -.00000216  00000-0  45155-5 0  9992,2 52134  53.2185  53.4293 0001395  88.1470 271.9682 15.08840230 88296,6917.88,95.438,540.71,538.78,0.0
52134.0,STARLINK-3721,PAYLOAD,2023-10-13 12:38:37,15.088293,0.0001235,53.2188,51.3504,92.9643,267.1491,-1.6764e-05,-5.55e-06,0.0,0 STARLINK-3721,1 52134U 22029AY  23286.52681949 -.00000555  00000-0 -16764-4 0  9990,2 52134  53.2188  51.3504 0001235  92.9643 267.1491 15.08829300 88367,6917.913,95.438,540.632,538.924,0.0
52134.0,STARLINK-3721,PAYLOAD,2023-10-13 14:14:00,15.08832955,0.0001534,53.2182,51.0499,87.856,272.2608,5.0284e-05,5.12e-06,0.0,0 STARLINK-3721,1 52134U 22029AY  23286.59305842  .00000512  00000-0  50284-4 0  9998,2 52134  53.2182  51.0499 0001534  87.8560 272.2608 15.08832955 88372,6917.902,95.438,540.828,538.706,0.0
52134.0,STARLINK-3721,PAYLOAD,2023-10-13 15:49:23,15.08835804,0.0001585,53.2182,50.752,85.9701,274.1473,9.4341e-05,1.214e-05,0.0,0 STARLINK-3721,1 52134U 22029AY  23286.65929744  .00001214  00000-0  94341-4 0  9990,2 52134  53.2182  50.7520 0001585  85.9701 274.1473 15.08835804 88383,6917.893,95.438,540.855,538.662,0.0
52134.0,STARLINK-3721,PAYLOAD,2023-10-14 14:04:46,15.08848275,0.0001519,53.2186,46.5916,76.3129,283.8032,0.00010971,1.459e-05,0.0,0 STARLINK-3721,1 52134U 22029AY  23287.58665201  .00001459  00000-0  10971-3 0  9995,2 52134  53.2186  46.5916 0001519  76.3129 283.8032 15.08848275 88524,6917.855,95.437,540.771,538.669,0.0
52134.0,STARLINK-3721,PAYLOAD,2023-10-14 17:15:32,15.08854635,0.0001481,53.2185,45.9964,82.7469,277.3691,0.00020124,2.917e-05,0.0,0 STARLINK-3721,1 52134U 22029AY  23287.71912798  .00002917  00000-0  20124-3 0  9997,2 52134  53.2185  45.9964 0001481  82.7469 277.3691 15.08854635 88543,6917.836,95.437,540.725,538.676,0.0
52134.0,STARLINK-3721,PAYLOAD,2023-10-15 07:34:02,15.08826948,0.0001172,53.2191,43.3219,89.7804,270.3322,1.4125e-05,-6.3e-07,0.0,0 STARLINK-3721,1 52134U 22029AY  23288.31530353 -.00000063  00000-0  14125-4 0  9993,2 52134  53.2191  43.3219 0001172  89.7804 270.3322 15.08826948 88632,6917.92,95.438,540.596,538.975,0.0
52134.0,STARLINK-3721,PAYLOAD,2023-10-15 13:55:34,15.08828701,0.0001241,53.2184,42.1327,92.1768,267.9366,2.8615e-05,1.67e-06,0.0,0 STARLINK-3721,1 52134U 22029AY  23288.58026507  .00000167  00000-0  28615-4 0  9996,2 52134  53.2184  42.1327 0001241  92.1768 267.9366 15.08828701 88678,6917.915,95.438,540.638,538.921,0.0
52134.0,STARLINK-3721,PAYLOAD,2023-10-16 12:10:57,15.08852118,0.0001402,53.2182,37.9684,91.2566,268.8587,0.00020468,2.972e-05,0.0,0 STARLINK-3721,1 52134U 22029AY  23289.50761447  .00002972  00000-0  20468-3 0  9991,2 52134  53.2182  37.9684 0001402  91.2566 268.8587 15.08852118 88819,6917.843,95.437,540.678,538.738,0.0
52134.0,STARLINK-3721,PAYLOAD,2023-10-16 13:46:20,15.08855661,0.0001534,53.2183,37.6702,94.6175,265.4992,0.00027222,4.049e-05,0.0,0 STARLINK-3721,1 52134U 22029AY  23289.57385294  .00004049  00000-0  27222-3 0  9992,2 52134  53.2183  37.6702 0001534  94.6175 265.4992 15.08855661 88827,6917.833,95.437,540.759,538.636,0.0
52134.0,STARLINK-3721,PAYLOAD,2023-10-16 16:57:07,15.08862175,0.0001547,53.2182,37.0746,99.7348,260.3819,0.0005461,8.419e-05,0.0,0 STARLINK-3721,1 52134U 22029AY  23289.70633147  .00008419  00000-0  54610-3 0  9996,2 52134  53.2182  37.0746 0001547  99.7348 260.3819 15.08862175 88842,6917.813,95.436,540.748,538.607,0.0
52134.0,STARLINK-3721,PAYLOAD,2023-10-17 12:01:44,15.08851882,0.0002758,53.2183,33.5011,134.2997,225.8222,0.00017008,2.42e-05,0.0,0 STARLINK-3721,1 52134U 22029AY  23290.50121464  .00002420  00000-0  17008-3 0  9996,2 52134  53.2183  33.5011 0002758 134.2997 225.8222 15.08851882 88969,6917.844,95.437,541.617,537.801,0.0
52134.0,STARLINK-3721,PAYLOAD,2023-10-17 13:37:08,15.08848105,0.0001464,53.2184,33.209,96.3166,263.7993,0.00022912,3.361e-05,0.0,0 STARLINK-3721,1 52134U 22029AY  23290.56745653  .00003361  00000-0  22912-3 0  9999,2 52134  53.2184  33.2090 0001464  96.3166 263.7993 15.08848105 88974,6917.856,95.437,540.733,538.708,0.0
52134.0,STARLINK-3721,PAYLOAD,2023-10-17 16:47:54,15.08849894,0.00015,53.2185,32.6141,95.804,264.3123,0.00031031,4.655e-05,0.0,0 STARLINK-3721,1 52134U 22029AY  23290.69993543  .00004655  00000-0  31031-3 0  9995,2 52134  53.2185  32.6141 0001500  95.8040 264.3123 15.08849894 88991,6917.85,95.437,540.753,538.677,0.0
52134.0,STARLINK-3721,PAYLOAD,2023-10-18 13:27:55,15.08845094,0.0001389,53.2175,28.7505,74.6744,285.4401,8.5911e-05,1.08e-05,0.0,0 STARLINK-3721,1 52134U 22029AY  23291.56105800  .00001080  00000-0  85911-4 0  9999,2 52134  53.2175  28.7505 0001389  74.6744 285.4401 15.08845094 89128,6917.865,95.437,540.691,538.769,0.0
52134.0,STARLINK-3721,PAYLOAD,2023-10-18 16:38:41,15.08846376,0.0001452,53.2179,28.1547,74.369,285.7462,0.00036424,5.515e-05,0.0,0 STARLINK-3721,1 52134U 22029AY  23291.69353930  .00005515  00000-0  36424-3 0  9993,2 52134  53.2179  28.1547 0001452  74.3690 285.7462 15.08846376 89146,6917.861,95.437,540.73,538.721,0.0
52134.0,STARLINK-3721,PAYLOAD,2023-10-19 11:43:19,15.08857165,0.0001769,53.218,24.586,73.5856,286.533,0.00059881,9.259e-05,0.0,0 STARLINK-3721,1 52134U 22029AY  23292.48841717  .00009259  00000-0  59881-3 0  9997,2 52134  53.2180  24.5860 0001769  73.5856 286.5330 15.08857165 89266,6917.828,95.436,540.917,538.469,0.0
